H1 CPF 01  gfz 2021 03 28 12  5872 terrasarx 
H2 0702601  6201 31698    2021 03 28 12 59 42 2021 04 02 00 00 42   120 1 1  0 0 0
H9
10 0 59305  32382.000000  0   -1672400.199    422592.295  -6675647.326
10 0 59305  32502.000000  0   -2262276.271   1079627.596  -6423012.485
10 0 59305  32622.000000  0   -2801525.846   1727834.093  -6058273.135
10 0 59305  32742.000000  0   -3281030.315   2354990.603  -5587718.078
10 0 59305  32862.000000  0   -3692896.657   2949068.991  -5019479.456
10 0 59305  32982.000000  0   -4030592.029   3498464.438  -4363403.572
10 0 59305  33102.000000  0   -4289052.784   3992223.342  -3630889.756
10 0 59305  33222.000000  0   -4464765.096   4420264.745  -2834701.141
10 0 59305  33342.000000  0   -4555817.618   4773590.725  -1988748.473
10 0 59305  33462.000000  0   -4561923.007   5044479.777  -1107849.612
10 0 59305  33582.000000  0   -4484408.233   5226659.901   -207468.482
10 0 59305  33702.000000  0   -4326170.269   5315454.370    696562.898
10 0 59305  33822.000000  0   -4091600.745   5307896.861   1588329.775
10 0 59305  33942.000000  0   -3786479.697   5202812.298   2452125.733
10 0 59305  34062.000000  0   -3417840.076   5000859.800   3272738.541
10 0 59305  34182.000000  0   -2993807.825   4704538.843   4035724.311
10 0 59305  34302.000000  0   -2523423.144   4318159.103   4727665.881
10 0 59305  34422.000000  0   -2016445.996   3847773.609   5336410.601
10 0 59305  34542.000000  0   -1483151.329   3301077.263   5851282.655
10 0 59305  34662.000000  0    -934118.367   2687273.802   6263266.063
10 0 59305  34782.000000  0    -380019.711   2016914.241   6565155.830
10 0 59305  34902.000000  0     168585.293   1301712.140   6751677.595
10 0 59305  35022.000000  0     701451.494    554336.298   6819574.764
10 0 59305  35142.000000  0    1208838.318   -211813.674   6767660.864
10 0 59305  35262.000000  0    1681686.747   -982846.553   6596839.909
10 0 59305  35382.000000  0    2111780.800  -1744630.887   6310091.834
10 0 59305  35502.000000  0    2491890.895  -2483053.347   5912424.725
10 0 59305  35622.000000  0    2815897.538  -3184281.517   5410792.827
10 0 59305  35742.000000  0    3078891.963  -3835025.541   4813980.459
10 0 59305  35862.000000  0    3277252.645  -4422794.037   4132454.181
10 0 59305  35982.000000  0    3408696.621  -4936140.438   3378183.223
10 0 59305  36102.000000  0    3472302.987  -5364892.433   2564430.569
10 0 59305  36222.000000  0    3468508.650  -5700360.503   1705518.415
10 0 59305  36342.000000  0    3399075.405  -5935519.592    816571.835
10 0 59305  36462.000000  0    3267029.828  -6065158.055    -86753.663
10 0 59305  36582.000000  0    3076578.237  -6085993.656   -988555.192
10 0 59305  36702.000000  0    2832995.751  -5996749.438  -1872973.118
10 0 59305  36822.000000  0    2542494.150  -5798188.436  -2724477.090
10 0 59305  36942.000000  0    2212072.963  -5493108.364  -3528145.400
10 0 59305  37062.000000  0    1849355.509  -5086294.689  -4269930.424
10 0 59305  37182.000000  0    1462415.886  -4584433.698  -4936902.075
10 0 59305  37302.000000  0    1059602.769  -3995991.549  -5517467.254
10 0 59305  37422.000000  0     649362.683  -3331061.705  -6001563.253
10 0 59305  37542.000000  0     240066.115  -2601184.008  -6380821.505
10 0 59305  37662.000000  0    -160159.567  -1819139.946  -6648700.794
10 0 59305  37782.000000  0    -543587.137   -998727.813  -6800589.484
10 0 59305  37902.000000  0    -903033.886   -154521.285  -6833876.815
10 0 59305  38022.000000  0   -1231992.305    698384.795  -6747991.945
10 0 59305  38142.000000  0   -1524745.152   1544637.198  -6544412.178
10 0 59305  38262.000000  0   -1776462.433   2368893.813  -6226640.010
10 0 59305  38382.000000  0   -1983280.280   3156095.564  -5800150.716
10 0 59305  38502.000000  0   -2142360.547   3891739.053  -5272307.786
10 0 59305  38622.000000  0   -2251929.582   4562143.984  -4652247.449
10 0 59305  38742.000000  0   -2311296.185   5154712.096  -3950731.296
10 0 59305  38862.000000  0   -2320846.911   5658170.286  -3179967.876
10 0 59305  38982.000000  0   -2282018.500   6062793.171  -2353407.771
10 0 59305  39102.000000  0   -2197248.526   6360602.184  -1485513.205
10 0 59305  39222.000000  0   -2069904.942   6545532.741   -591504.186
10 0 59305  39342.000000  0   -1904195.702   6613566.399    312910.328
10 0 59305  39462.000000  0   -1705060.517   6562826.835   1211815.563
10 0 59305  39582.000000  0   -1478046.049   6393628.922   2089383.027
10 0 59305  39702.000000  0   -1229168.215   6108481.424   2930158.256
10 0 59305  39822.000000  0    -964766.690   5712046.885   3719339.443
10 0 59305  39942.000000  0    -691355.202   5211060.378   4443043.009
10 0 59305  40062.000000  0    -415470.402   4614206.484   5088552.877
10 0 59305  40182.000000  0    -143521.636   3931956.400   5644542.213
10 0 59305  40302.000000  0     118351.294   3176376.856   6101268.253
10 0 59305  40422.000000  0     364411.150   2360908.056   6450738.884
10 0 59305  40542.000000  0     589444.587   1500119.135   6686845.977
10 0 59305  40662.000000  0     788869.403    609444.117   6805466.431
10 0 59305  40782.000000  0     958825.548   -295095.464   6804528.659
10 0 59305  40902.000000  0    1096248.796  -1197177.452   6684047.520
10 0 59305  41022.000000  0    1198925.894  -2080473.376   6446124.634
10 0 59305  41142.000000  0    1265530.317  -2928943.843   6094914.629
10 0 59305  41262.000000  0    1295637.822  -3727131.844   5636556.808
10 0 59305  41382.000000  0    1289721.438  -4460446.694   5079071.978
10 0 59305  41502.000000  0    1249127.563  -5115434.182   4432228.392
10 0 59305  41622.000000  0    1176032.383  -5680031.398   3707377.255
10 0 59305  41742.000000  0    1073379.428  -6143799.376   2917255.975
10 0 59305  41862.000000  0     944799.399  -6498125.231   2075763.936
10 0 59305  41982.000000  0     794513.105  -6736391.394   1197716.135
10 0 59305  42102.000000  0     627221.294  -6854107.548    298577.658
10 0 59305  42222.000000  0     447982.861  -6849001.796   -605817.528
10 0 59305  42342.000000  0     262084.272  -6721063.826  -1499556.387
10 0 59305  42462.000000  0      74905.735  -6472541.571  -2366935.121
10 0 59305  42582.000000  0    -108213.247  -6107894.111  -3192741.028
10 0 59305  42702.000000  0    -282106.154  -5633701.786  -3962523.476
10 0 59305  42822.000000  0    -441906.183  -5058534.600  -4662847.900
10 0 59305  42942.000000  0    -583164.013  -4392784.039  -5281526.204
10 0 59305  43062.000000  0    -701954.179  -3648464.175  -5807821.729
10 0 59305  43182.000000  0    -794967.545  -2838985.927  -6232626.015
10 0 59305  43302.000000  0    -859588.451  -1978909.729  -6548605.431
10 0 59305  43422.000000  0    -893955.378  -1083681.883  -6750316.196
10 0 59305  43542.000000  0    -897004.496   -169359.561  -6834288.762
10 0 59305  43662.000000  0    -868494.780    747672.633  -6799080.479
10 0 59305  43782.000000  0    -809014.773   1650988.674  -6645296.887
10 0 59305  43902.000000  0    -719971.405   2524407.769  -6375582.382
10 0 59305  44022.000000  0    -603560.509   3352277.668  -5994580.740
10 0 59305  44142.000000  0    -462719.173   4119752.701  -5508864.357
10 0 59305  44262.000000  0    -301060.547   4813059.890  -4926831.193
10 0 59305  44382.000000  0    -122792.773   5419750.402  -4258571.368
10 0 59305  44502.000000  0      67377.107   5928931.329  -3515702.252
10 0 59305  44622.000000  0     264352.748   6331471.592  -2711174.307
10 0 59305  44742.000000  0     462769.250   6620178.015  -1859050.593
10 0 59305  44862.000000  0     657122.571   6789936.981   -974262.142
10 0 59305  44982.000000  0     841904.626   6837816.504    -72343.533
10 0 59305  45102.000000  0    1011740.735   6763125.587    830845.963
10 0 59305  45222.000000  0    1161525.528   6567427.793   1719409.339
10 0 59305  45342.000000  0    1286552.686   6254510.019   2577699.784
10 0 59305  45462.000000  0    1382636.447   5830307.659   3390603.797
10 0 59305  45582.000000  0    1446221.984   5302787.008   4143814.860
10 0 59305  45702.000000  0    1474482.628   4681787.433   4824089.712
10 0 59305  45822.000000  0    1465398.925   3978826.635   5419485.096
10 0 59305  45942.000000  0    1417818.813   3206875.521   5919562.530
10 0 59305  46062.000000  0    1331499.638   2380112.395   6315566.559
10 0 59305  46182.000000  0    1207129.270   1513656.465   6600573.082
10 0 59305  46302.000000  0    1046327.047    623286.858   6769604.261
10 0 59305  46422.000000  0     851624.213   -274845.600   6819708.845
10 0 59305  46542.000000  0     626424.259  -1164509.867   6750011.668
10 0 59305  46662.000000  0     374943.273  -2029688.203   6561728.761
10 0 59305  46782.000000  0     102131.078  -2854864.440   6258147.713
10 0 59305  46902.000000  0    -186425.055  -3625304.027   5844572.644
10 0 59305  47022.000000  0    -484611.655  -4327317.675   5328234.700
10 0 59305  47142.000000  0    -785914.079  -4948507.194   4718173.336
10 0 59305  47262.000000  0   -1083554.698  -5477993.080   4025086.515
10 0 59305  47382.000000  0   -1370641.086  -5906615.733   3261146.277
10 0 59305  47502.000000  0   -1640319.917  -6227103.026   2439785.520
10 0 59305  47622.000000  0   -1885933.953  -6434202.973   1575461.098
10 0 59305  47742.000000  0   -2101178.667  -6524777.235    683394.367
10 0 59305  47862.000000  0   -2280252.211  -6497851.743   -220704.520
10 0 59305  47982.000000  0   -2417996.197  -6354623.924  -1120921.940
10 0 59305  48102.000000  0   -2510023.930  -6098426.088  -2001429.561
10 0 59305  48222.000000  0   -2552833.066  -5734646.259  -2846770.430
10 0 59305  48342.000000  0   -2543899.393  -5270608.146  -3642136.470
10 0 59305  48462.000000  0   -2481749.239  -4715413.409  -4373630.264
10 0 59305  48582.000000  0   -2366009.343  -4079752.334  -5028505.415
10 0 59305  48702.000000  0   -2197433.924  -3375688.725  -5595382.511
10 0 59305  48822.000000  0   -1977908.944  -2616423.915  -6064438.548
99
